{
    "links": {
        "self": "http://www.neowsapp.com/rest/v1/neo/54016549?api_key=iIulBulltgU6a56xZRHN4H3l9WmuAYTsLGpBGhQ2"
    },
    "id": "54016549",
    "neo_reference_id": "54016549",
    "name": "(2020 HK)",
    "designation": "2020 HK",
    "nasa_jpl_url": "http://ssd.jpl.nasa.gov/sbdb.cgi?sstr=54016549",
    "absolute_magnitude_h": 25.033,
    "estimated_diameter": {
        "kilometers": {
            "estimated_diameter_min": 0.0261791159,
            "estimated_diameter_max": 0.0585382828
        },
        "meters": {
            "estimated_diameter_min": 26.1791159475,
            "estimated_diameter_max": 58.5382828494
        },
        "miles": {
            "estimated_diameter_min": 0.0162669435,
            "estimated_diameter_max": 0.0363739914
        },
        "feet": {
            "estimated_diameter_min": 85.8894907651,
            "estimated_diameter_max": 192.0547399036
        }
    },
    "is_potentially_hazardous_asteroid": false,
    "close_approach_data": [
        {
            "close_approach_date": "2019-09-26",
            "close_approach_date_full": "2019-Sep-26 03:45",
            "epoch_date_close_approach": 1569469500000,
            "relative_velocity": {
                "kilometers_per_second": "8.6153576536",
                "kilometers_per_hour": "31015.2875531316",
                "miles_per_hour": "19271.6935354445"
            },
            "miss_distance": {
                "astronomical": "0.4229764623",
                "lunar": "164.5378438347",
                "kilometers": "63276377.820215301",
                "miles": "39318117.9721251138"
            },
            "orbiting_body": "Earth"
        },
        {
            "close_approach_date": "2020-04-05",
            "close_approach_date_full": "2020-Apr-05 00:32",
            "epoch_date_close_approach": 1586046720000,
            "relative_velocity": {
                "kilometers_per_second": "10.5040105959",
                "kilometers_per_hour": "37814.4381450956",
                "miles_per_hour": "23496.421301879"
            },
            "miss_distance": {
                "astronomical": "0.0602027788",
                "lunar": "23.4188809532",
                "kilometers": "9006207.476561156",
                "miles": "5596197.8267937128"
            },
            "orbiting_body": "Earth"
        },
        {
            "close_approach_date": "2152-04-04",
            "close_approach_date_full": "2152-Apr-04 23:47",
            "epoch_date_close_approach": 5751560820000,
            "relative_velocity": {
                "kilometers_per_second": "9.5412396684",
                "kilometers_per_hour": "34348.4628061461",
                "miles_per_hour": "21342.7990141856"
            },
            "miss_distance": {
                "astronomical": "0.0878419346",
                "lunar": "34.1705125594",
                "kilometers": "13140966.312839302",
                "miles": "8165417.8313422876"
            },
            "orbiting_body": "Earth"
        }
    ],
    "orbital_data": {
        "orbit_id": "2",
        "orbit_determination_date": "2020-04-26 06:39:35",
        "first_observation_date": "2020-04-16",
        "last_observation_date": "2020-04-26",
        "data_arc_in_days": 10,
        "observations_used": 21,
        "orbit_uncertainty": "8",
        "minimum_orbit_intersection": ".0577671",
        "jupiter_tisserand_invariant": "5.213",
        "epoch_osculation": "2458957.5",
        "eccentricity": ".2918098185491312",
        "semi_major_axis": "1.203288830548282",
        "inclination": "14.99038133718634",
        "ascending_node_longitude": "24.69246387862355",
        "orbital_period": "482.1178986478595",
        "perihelion_distance": ".8521573352437917",
        "perihelion_argument": "92.36331573254246",
        "aphelion_distance": "1.554420325852772",
        "perihelion_time": "2458880.362361911162",
        "mean_anomaly": "57.59908476715704",
        "mean_motion": ".7467053204406029",
        "equinox": "J2000",
        "orbit_class": {
            "orbit_class_type": "APO",
            "orbit_class_description": "Near-Earth asteroid orbits which cross the Earth’s orbit similar to that of 1862 Apollo",
            "orbit_class_range": "a (semi-major axis) > 1.0 AU; q (perihelion) < 1.017 AU"
        }
    },
    "is_sentry_object": false
}